JY1SAT (JO-97)          
1 43803U 18099AX  26068.68634132  .00017774  00000+0  60804-3 0  9996
2 43803  97.4249 131.3625 0004723 256.6795 103.3919 15.30302628398390
STARLINK-35385          
1 65906U 25224AA  26068.21908498  .00031293  00000+0  10648-2 0  9992
2 65906  53.1605  13.4269 0000906 116.6777 243.4317 15.30183882 24787
